#cP2023  6  7  0  0  0.00000000      96 ORBIT IGS20 HLM  IGS
## 2265 259200.00000000   900.00000000 60102 0.0000000000000
+   32   G01G02G03G04G05G06G07G08G09G10G11G12G13G14G15G16G17
+        G18G19G20G21G22G23G24G25G26G27G28G29G30G31G32  0  0
+          0  0  0  0  0  0  0  0  0  0  0  0  0  0  0  0  0
+          0  0  0  0  0  0  0  0  0  0  0  0  0  0  0  0  0
+          0  0  0  0  0  0  0  0  0  0  0  0  0  0  0  0  0
++         2  2  2  2  2  2  2  2  1  2  2  2  2  2  2  3  2
++         2  2  2  2  3  3  2  2  2  2  2  2  2  2  2  0  0
++         0  0  0  0  0  0  0  0  0  0  0  0  0  0  0  0  0
++         0  0  0  0  0  0  0  0  0  0  0  0  0  0  0  0  0
++         0  0  0  0  0  0  0  0  0  0  0  0  0  0  0  0  0
%c G  cc GPS ccc cccc cccc cccc cccc ccccc ccccc ccccc ccccc
%c cc cc ccc ccc cccc cccc cccc cccc ccccc ccccc ccccc ccccc
%f  1.2500000  1.025000000  0.00000000000  0.000000000000000
%f  0.0000000  0.000000000  0.00000000000  0.000000000000000
%i    0    0    0    0      0      0      0      0         0
%i    0    0    0    0      0      0      0      0         0
/* RAPID ORBIT COMBINATION FROM WEIGHTED AVERAGE OF:        
/* cod emr esa gfz grg jpl ngs sio usn whu                  
/* REFERENCED TO IGS TIME (IGST) AND TO WEIGHTED MEAN POLE: 
/* PCV:IGS20_2233 OL/AL:FES2014b NONE     Y  ORB:CMB CLK:CMB
*  2023  6  7 21 45  0.00000000
PG01  -5950.479128  17387.254885 -19377.873167    179.836828  3  6  6 104       
PG02 -12178.964849  18952.023956 -13453.348932   -587.948656  6  6  6  96       
PG03   5309.668104  18151.213427 -18833.283982   -278.208551  6  6  5 112       
PG04    -57.677079  26396.746555   2324.856146     62.213703  6  7  5  99       
PG05  11562.644743 -10438.922324  21350.406571   -130.235279  5  6  3 121       
PG06  23421.623189  -3332.932547 -12113.829717    586.071836  5  6  4 116       
PG07  10570.125927  11967.056442  21732.893660    158.255574  6  3  5  80       
PG08  -6815.454281  23542.002424   9650.985060   -126.275218  2  6  4 102       
PG09   7897.609166  22591.408374  11400.978158   -141.021073  4  5  5  86       
PG10 -23913.210178 -10758.407881  -4999.286064    -40.219147  7  4  7  97       
PG11  23165.025098 -12751.092456   2269.758414   -226.664117  6  7  6 114       
PG12   -878.111973 -17718.285293 -20069.293864   -385.781641  3  7  6  78       
PG13  13025.935389 -17859.664610  14391.793494    530.905032  4  6  4  91       
PG14  23047.534771  13146.423398  -2421.287474     83.184426  9  8  8 116       
PG15   3621.441573 -24582.051032   8550.718994     46.771150  6  5  4 122       
PG16 -15715.980149   5882.083810  20388.237890   -493.724204  7  6  7 118       
PG17  13307.861965   8988.333266 -20708.755087    717.620814  7  7  5 118       
PG18 -12995.687396  -9485.806438  21159.076534   -298.553696  7  9  7 110       
PG19  15105.601692    329.655861 -22052.014453    327.529789  7  6  5 112       
PG20  19381.561437  -5489.251065  17247.137739    429.248985  4  5  6  97       
PG21 -13547.031359  18698.855003 -11762.086949    153.288077  5  6  5  97       
PG22 -15148.686030   3917.735843 -20987.229887    494.271896  8 10  6  73       
PG23 -19659.014139 -16662.532517   6763.187293     31.069056 10 11  9  97       
PG24   8764.765794 -19653.560216 -15650.553422   -216.958387  8  5  8  88       
PG25 -13405.883092 -19057.028746 -13306.354146    448.278837  7  7  6 102       
PG26 -23352.952171  -1639.631411  12744.632128    239.512608  6  7  7 105       
PG27 -12638.800827  14590.833014  17804.917203     21.089527  2  4  5 103       
PG28 -22696.909084   2245.977258 -13629.226280     82.531383  5  8  4  92       
PG29  -4050.051880 -24311.089037   9724.945744   -602.092628  6  3  6  88       
PG30  19590.672021   4367.351619  17636.578465   -512.471065  3  5  4  53       
PG31 -24586.121375  10318.353345  -2800.052562   -217.698120  7  6  7  89       
PG32 -14710.248627  -5907.689073 -21158.365944   -495.092730  6  5  4  67       
*  2023  6  7 22  0  0.00000000
PG01  -7806.205053  18304.118962 -17749.065119    179.834620  3  6  6 113       
PG02 -13520.102464  19618.213432 -11081.879653   -587.944927  6  6  5  99       
PG03   3360.125492  17131.623502 -20187.258700   -278.197125  6  6  4 118       
PG04   -319.607405  26489.850765   -539.069449     62.222801  6  7  5  99       
PG05  13702.250664  -9274.832036  20625.717482   -130.236806  5  6  4 124       
PG06  22167.246621  -2463.572262 -14438.441778    586.070413  6  6  5 117       
PG07   8491.916230  13168.217319  21909.847060    158.246357  7  2  5  66       
PG08  -7109.575364  22281.452590  12133.009115   -126.277291  3  5  5  95       
PG09   7685.844918  23769.556341   8885.234618   -141.013134  4  5  5  81       
PG10 -24194.417569 -11123.766775  -2163.933385    -40.220604  7  4  8  98       
PG11  23362.221982 -12576.523896   -595.307737   -226.677429  6  7  6 110       
PG12   1071.596012 -16505.577736 -21075.379708   -385.785846  4  8  6  80       
PG13  12962.730402 -16053.681011  16427.394872    530.909439  4  6  4  96       
PG14  23002.203513  13443.488557    398.731671     83.195644  9  8  7  55       
PG15   4116.065964 -23448.527833  11042.285786     46.774283  4  4  4 125       
PG16 -17569.450607   4490.586395  19253.753597   -493.720707  8  6  7 112       
PG17  13078.260028  11375.371346 -19667.179991    717.621717  7  7  5 114       
PG18 -10874.822925 -10712.145616  21747.741484   -298.567394  7  9  7 104       
PG19  14864.818175   2790.643412 -22068.573567    327.533820  7  6  5 116       
PG20  21070.376310  -4658.202487  15391.865637    429.246723  4  5  6  92       
PG21 -14780.156060  19208.469391  -9226.896870    153.287540  5  5  5  98       
PG22 -14995.849833   1397.545738 -21416.935610    494.277512  8 10  6  86       
PG23 -18757.141414 -16395.895070   9434.018479     31.072211 10 11  9 101       
PG24  10253.187544 -20388.969106 -13587.448764   -216.970359  7  5  9  82       
PG25 -11928.389750 -18445.716184 -15430.179394    448.281113  7  7  6 105       
PG26 -24441.484333  -2454.159302  10408.368903    239.511979  6  7  7  90       
PG27 -12803.455956  12410.376505  19295.385426     21.082600  3  5  5 112       
PG28 -21377.728753   1193.868519 -15735.846990     82.532667  4  8  5  95       
PG29  -3778.258526 -25261.516927   7053.101739   -602.093986  6  3  7  70       
PG30  17861.314927   5531.140781  19072.276685   -512.468937  4  5  4  66       
PG31 -24302.459890   9892.756881  -5564.955911   -217.699152  7  6  7  96       
PG32 -14675.810138  -8319.250333 -20381.164856   -495.100496  7  5  4  60       
*  2023  6  7 22 15  0.00000000
PG01  -9442.254267  19217.535554 -15818.417277    179.832392  2  6  6 102       
PG02 -14598.243392  20178.728968  -8513.437033   -587.941140  6  6  5  81       
PG03   1237.279082  16162.489321 -21198.860843   -278.185676  6  6  4 116       
PG04   -585.572337  26271.864927  -3393.652222     62.231975  6  7  5  95       
PG05  15804.302352  -8267.482921  19541.361653   -130.237430  4  6  4 119       
PG06  20754.558342  -1387.121776 -16514.821637    586.068926  6  6  6 121       
PG07   6475.006635  14477.644211  21725.328579    158.237584  8  3  4  80       
PG08  -7491.127350  20767.897220  14401.157537   -126.279421  3  5  5  82       
PG09   7510.212061  24663.709057   6215.768042   -141.005245  4  5  5  79       
PG10 -24207.565029 -11329.300941    708.036176    -40.221704  7  5  8 113       
PG11  23289.489899 -12246.992216  -3450.102124   -226.690773  6  7  5 105       
PG12   3163.420892 -15352.411913 -21728.086718   -385.790221  4  8  6  92       
PG13  12978.824870 -14031.195453  18174.304088    530.914268  5  6  5 103       
PG14  22692.529034  13592.269775   3211.952558     83.206881  9  8  6  72       
PG15   4720.003016 -22069.264965  13336.836305     46.777283  3  4  4 120       
PG16 -19363.054586   3279.724898  17783.760354   -493.717051  9  6  7 111       
PG17  12975.637377  13629.399693 -18273.684683    717.622444  7  7  5 117       
PG18  -8783.923729 -12077.041332  21962.624888   -298.580939  6  9  7 100       
PG19  14760.090460   5239.329009 -21713.576592    327.538712  7  6  5 112       
PG20  22583.950127  -3976.921892  13270.096243    429.244642  4  5  6  85       
PG21 -15744.783604  19589.646231  -6521.125467    153.287087  6  5  5  93       
PG22 -14971.158673  -1153.438760 -21461.992289    494.282873  9 10  5  78       
PG23 -17575.794476 -16056.686858  11943.919966     31.075331 10 11  9  97       
PG24  11517.775235 -21041.719966 -11290.545967   -216.982335  7  5  9  81       
PG25 -10221.503301 -17815.191902 -17296.790648    448.283417  7  7  5 118       
PG26 -25316.110622  -3108.508613   7895.321057    239.511307  6  7  7  98       
PG27 -13090.979915  10092.121581  20442.848288     21.075664  3  5  5 104       
PG28 -19933.891902    -55.244476 -17572.016413     82.533958  4  8  5 105       
PG29  -3562.525001 -25914.308533   4259.015157   -602.095190  6  4  7  88       
PG30  16069.769831   6856.407604  20185.218098   -512.466778  4  5  5  79       
PG31 -23784.186652   9291.472041  -8236.861447   -217.699683  8  6  7  85       
PG32 -14758.315844 -10618.461606 -19249.153095   -495.108229  7  6  4  96       
EOF
